KUIPER-00522            
1 69602U 26140L   26197.54584077  .00014289  00000+0  37748-3 0  9996
2 69602  51.8765 256.4972 0013124 273.5705  86.3781 15.38614832  5753
KUIPER-00528            
1 69603U 26140M   26197.57708163  .00015171  00000+0  41531-3 0  9990
2 69603  51.8776 256.6977 0005936   4.3015 355.8022 15.37521210  5757
KUIPER-00532            
1 69604U 26140N   26197.52417288  .00007694  00000+0  22263-3 0  9993
2 69604  51.8770 257.0887 0005556  40.2695 319.8702 15.36574850  5749
KUIPER-00533            
1 69605U 26140P   26197.56055863  .00016766  00000+0  44617-3 0  9992
2 69605  51.8773 256.5912 0008289 330.0462  30.0050 15.38301447  5755
KUIPER-00534            
1 69606U 26140Q   26197.47564417  .00007762  00000+0  20910-3 0  9999
2 69606  51.8806 256.7852 0013358 273.3129  86.6330 15.38742614  5742
KUIPER-00537            
1 69607U 26140R   26197.42014725 -.00010689  00000+0 -30727-3 0  9998
2 69607  51.8787 257.8914 0010671  51.7897 308.4048 15.34125323  5724
KUIPER-00538            
1 69608U 26140S   26197.57170450  .00013199  00000+0  36002-3 0  9992
2 69608  51.8802 256.6705 0006865 346.1834  13.8964 15.37754753  5755
KUIPER-00540            
1 69609U 26140T   26197.51929577  .00013040  00000+0  36471-3 0  9994
2 69609  51.8800 257.0682 0006664  27.2165 332.9170 15.36985728  5744
KUIPER-00541            
1 69610U 26140U   26197.43015212  .00012665  00000+0  33827-3 0  9993
2 69610  51.8805 257.2285 0007864 330.1587  29.8951 15.38440582  5733
KUIPER-00542            
1 69611U 26140V   26197.55898344  .00012719  00000+0  34107-3 0  9994
2 69611  51.8777 256.5811 0007895 311.2984  48.7323 15.38313003  5756
KUIPER-00543            
1 69612U 26140W   26197.45894896  .00006734  00000+0  19447-3 0  9992
2 69612  51.8773 257.3997 0008024  39.6029 320.5542 15.36847698  5735
KUIPER-00544            
1 69613U 26140X   26197.43362012  .00015393  00000+0  41195-3 0  9997
2 69613  51.8777 257.2376 0006940 323.8770  36.1747 15.38205711  5739
KUIPER-00546            
1 69614U 26140Y   26197.47713772  .00022610  00000+0  60132-3 0  9997
2 69614  51.8772 256.7878 0013992 271.9527  87.9857 15.38049034  5745
KUIPER-00547            
1 69615U 26140Z   26197.55795108  .00012882  00000+0  34904-3 0  9998
2 69615  51.8815 256.5843 0011119 295.2840  64.6995 15.37951847  5759
KUIPER-00549            
1 69616U 26140AA  26197.57891654  .00013244  00000+0  36576-3 0  9994
2 69616  51.8779 256.7102 0007924  19.5782 340.5508 15.37359191  5750
KUIPER-00550            
1 69617U 26140AB  26197.43714061 -.00033367  00000+0 -10587-2 0  9999
2 69617  51.8802 257.9951 0006310  56.0376 304.1207 15.31931422  5722
KUIPER-00551            
1 69618U 26140AC  26197.55006505  .00016131  00000+0  42958-3 0  9996
2 69618  51.8779 256.5241 0012509 285.0023  74.9579 15.38269864  5751
KUIPER-00554            
1 69619U 26140AD  26197.49107539  .00013773  00000+0  37171-3 0  9999
2 69619  51.8783 256.8766 0011182 296.5765  63.4076 15.38008374  5749
KUIPER-00555            
1 69620U 26140AE  26197.58335648  .00052686  00000+0  13872-2 0  9992
2 69620  51.8809 256.4111 0011416 285.7952 240.1864 15.37962741  5226
KUIPER-00556            
1 69621U 26140AF  26197.55188939  .00013247  00000+0  35383-3 0  9991
2 69621  51.8795 256.5407 0012210 272.8271  87.1319 15.38356550  5752
KUIPER-00557            
1 69622U 26140AG  26197.56233305  .00016702  00000+0  45503-3 0  9995
2 69622  51.8804 256.6107 0010216 305.3630  54.6401 15.37560263  5755
KUIPER-00560            
1 69623U 26140AH  26197.58335648  .00051857  00000+0  14105-2 0  9994
2 69623  51.8780 256.4022 0009421 318.2513 207.4590 15.36985395  5339
KUIPER-00561            
1 69624U 26140AJ  26197.42390591  .00012821  00000+0  33889-3 0  9995
2 69624  51.8812 257.1893 0007665 305.7051  54.3223 15.38751926  5735
KUIPER-00564            
1 69625U 26140AK  26197.55961459  .00011868  00000+0  33012-3 0  9995
2 69625  51.8794 256.5928 0009287 306.5552  53.4579 15.37234034  5755
KUIPER-00567            
1 69626U 26140AL  26197.58335648  .00051886  00000+0  13510-2 0  9998
2 69626  51.8765 256.3532 0012913 275.8318 272.9996 15.38294691  5736
KUIPER-00573            
1 69627U 26140AM  26197.56619218  .00010817  00000+0  29924-3 0  9991
2 69627  51.8777 256.6274 0009381 291.6206  68.3781 15.37506039  5755
CENTISPACE-1 GROUP 05 O*
1 69636U 26138J   26194.40472368 -.00000256  00000+0 -51944-4 0  9997
2 69636  55.1383 184.3032 0009547 341.3483  18.7141 14.15842380  3707
VICTUS HAZE PUMA        
1 69646U 26142A   26197.29810792  .00001778  00000+0  84764-4 0  9994
2 69646  97.4461  94.5882 0022441 264.2185  95.6491 15.20227445  4090
HOKUSHIN-1              
1 69648U 98067YH  26197.58154338  .00016901  00000+0  29229-3 0  9998
2 69648  51.6315 154.3536 0006217 335.9165  24.1533 15.51054092  4218
